{"type":"FeatureCollection","features":[{"type":"Feature","properties":{"road":"ДВЖД","fill":"#E8B800","fill-opacity":0.3,"stroke":"#E8B800","stroke-width":0.5,"stroke-opacity":0.9},"geometry":{"type":"Polygon","coordinates":[[[130.6322706292718,42.280866141319535],[130.4180372308343,42.87358420078668],[131.17060070739686,43.10747188447082],[131.48920422302183,43.588530442806565],[131.20355969177186,44.0815891882149],[131.28046398864683,44.24766276397863],[131.21454601989683,44.40539038418892],[131.14862805114674,44.71956449638542],[131.14862805114677,44.77436934166325],[131.55512219177183,45.00086070054097],[131.74188976989677,45.296283535261054],[132.99433117614683,45.01644769978268],[133.18109875427183,45.304037005967125],[133.32392101989686,45.49752691342779],[133.44139126381924,45.635650523384406],[133.48195721086668,45.78111982543682],[133.4929435389917,45.91164459243522],[133.63576580461668,46.07245552759755],[133.70168377336668,46.2175459568341],[133.8335197108667,46.27090331709448],[133.8994376796167,46.362251573610365],[133.87746502336668,46.45344637662041],[133.89943767961665,46.642942822058416],[134.00930096086663,46.786514950753556],[133.98732830461663,46.86192485707541],[134.0642326014916,46.952276251741495],[134.15761639055404,47.01618244544195],[134.16310955461648,47.07250642950174],[134.22902752336663,47.16250035377843],[134.2510001796166,47.20743988852262],[134.34987713274163,47.39427599501256],[134.4707267421166,47.43901782121131],[134.6245353358666,47.55070506249262],[134.69045330461663,47.66957473606506],[134.75637127336663,47.76595623251979],[134.6574943202416,47.86955112673572],[134.68633343156966,47.91480851014733],[134.68908001360091,47.98861261035273],[134.7103660243431,48.02915967012877],[134.74263836321026,48.084399437693925],[134.875504268972,48.240359076252695],[134.81885601457748,48.36016192760905],[134.98983074602276,48.50501226241537],[134.6822135585228,48.486757515524054],[134.56411053117904,48.47032259009031],[134.2070548671165,48.424641915040226],[134.113671078054,48.39355544488434],[134.00380779680404,48.36153469809367],[133.89943767961654,48.32399891149116],[133.73738933977276,48.27543583313925],[133.60829998430407,48.2176494497083],[133.49019695696032,48.194700140787226],[133.45723797258532,48.1827624118712],[133.42702557024163,48.18643585717261],[133.10292889055398,48.18643585719331],[132.99581219133515,48.14233703286118],[132.85573650774148,48.090840193676755],[132.4904410975852,47.8898756904854],[132.35311199602268,47.79742666537409],[132.10866619524143,47.75113998481462],[131.84499432024145,47.71408079296786],[131.6801993983663,47.77336276468092],[131.44948650774137,47.817779673732915],[131.35060955461628,47.79557599405445],[131.26271892961637,47.825178778321316],[131.14186932024123,47.7622525686536],[131.03200603899134,47.80297828162995],[131.05947185930384,47.891722980363554],[130.9770743983664,47.93603805016425],[130.82326580461637,48.076117273397735],[130.76833416399137,48.134983520538206],[130.9001701014914,48.28918481582005],[130.7793204921164,48.42098567542654],[130.8177726405539,48.50501226244344],[130.77932049211634,48.55244366436593],[130.7573478358664,48.669007540266605],[130.75486512131152,48.8448580259855],[130.6450018400615,48.964359235109626],[130.49119324631155,48.986055852492484],[130.2769598478741,48.986055852476476],[130.12864441818652,49.04747802964368],[129.75699136039208,49.26586458195004],[129.67459389945455,49.36282956712854],[129.41641518851705,49.430949135376004],[129.60318276664202,49.631170120201155],[129.91079995414202,49.76656487174338],[130.26085477521656,49.81227738395142],[130.58495145490403,49.76604470105869],[131.01341825177903,49.61280495077384],[131.123281533029,50.11700735828817],[131.82640653302903,50.55997390644279],[131.89232450177903,51.123411107191856],[130.749746376779,51.426613077369595],[129.14574247052894,53.65002513576884],[126.54198270490396,55.03003491317133],[124.69627957990397,55.174917646210815],[123.66356473615397,54.09153084003654],[123.0704697741308,54.17554533086063],[123.09793559444331,54.5668274440954],[123.33963481319331,54.74835781671881],[123.30667582881833,54.99544951252822],[123.9109238756933,55.281803768167975],[121.61478129756823,55.89158219346262],[119.77388569052316,55.52350073171423],[119.63106342489803,57.03887715966512],[124.29214350201036,57.00479765289852],[126.5787382280666,56.95174350509683],[127.77696723171962,56.86506296362084],[128.86533295412278,56.705733501920534],[129.88778070777585,56.569991356609236],[130.88825580517894,56.2751688362563],[131.52856903747414,56.22647783410486],[131.99310101976945,56.3855082205323],[132.9575109317522,56.34000940374335],[133.55937201560985,56.25166733018344],[134.03763690806156,56.11097697509427],[134.8454916442632,55.840164416774165],[135.31533698111386,55.99067715897595],[135.46657880233957,55.909890181402936],[135.59035480325295,55.864474147562625],[135.63722650729127,55.73541251977489],[135.6142401790397,55.27972984534194],[136.0581727961007,55.18815311972874],[136.69335248334755,54.57264568669945],[139.75304486616008,54.27154042926005],[141.33507611616005,53.2956366374895],[141.236199163035,52.669059208341245],[141.45592572553505,52.18214449195632],[140.81203379941212,51.387508415670965],[140.46596446347465,50.86208135353248],[140.38906016659962,50.60060773333853],[140.4549781353496,50.04142263223937],[140.1367066911682,48.4664678765912],[139.44754218668027,47.98100316683979],[138.95315742105527,47.413618871751844],[138.28848456949277,46.65877955534635],[137.7391681632427,45.93152868487115],[136.97012519449268,45.34969796347033],[136.3164386710551,44.74221223825885],[136.0253009757426,44.47537811391972],[135.7506427726176,44.361205806007],[135.51992988199262,44.01337796803011],[135.35513496011762,43.73920392789192],[135.05301093668012,43.50375787969567],[134.06527544046935,42.99207358920769],[133.90597368265685,42.87906048638509],[133.85653520609432,42.9275202520866],[133.72469926859435,42.81438778903844],[133.61483598734438,42.87502044082053],[133.36215044046932,42.753695202135845],[133.23580766703182,42.765838513963594],[133.13143754984435,42.6807849950132],[133.03805376078185,42.68483782573847],[133.03256059671935,42.72940138738211],[133.01058794046932,42.80225406623553],[132.93917680765685,42.854816216867405],[132.86227251078182,42.733451022344745],[132.78536821390685,42.822475605726865],[132.77438188578185,42.90329516498791],[132.62606645609435,42.854816216867405],[132.52169633890682,42.87906048640984],[132.47775102640685,42.93962919872628],[132.34042192484435,42.838648042437555],[132.29098344828185,42.95173574729697],[132.30746294046935,43.06461455096388],[132.34591508890685,43.14109188588723],[132.41183305765685,43.20541921793729],[132.30196977640682,43.221490387927766],[132.31844926859435,43.32584901750135],[131.92843462015682,43.05253038694021],[131.90096879984438,42.95173574729697],[131.79110551859435,42.93962919872628],[131.66476274515685,42.87906048640984],[131.73617387796932,42.988041004152464],[131.87350297953185,43.157180116472425],[132.04928422953182,43.26967830476064],[131.97787309671935,43.32183855681289],[131.81307817484435,43.30579404773269],[131.71969438578185,43.221490387927766],[131.20883012796932,42.56719762756238],[131.10995317484432,42.64024204184413],[131.02206254984432,42.65240772376128],[130.87374712015682,42.58749639559421],[130.8243086435943,42.65240772378608],[130.80233598734432,42.69294268831231],[130.68697954203182,42.68889039018888],[130.7254316904693,42.61996057994996],[130.8462812998443,42.51032567057222],[130.7968428232818,42.44526526433488],[130.63342119242236,42.278237017970866],[130.6322706292718,42.280866141319535]]]}},{"type":"Feature","properties":{"road":"ЗАБ","fill":"#5B8DD9","fill-opacity":0.3,"stroke":"#5B8DD9","stroke-width":0.5,"stroke-opacity":0.9},"geometry":{"type":"Polygon","coordinates":[[[129.41393877054549,49.43123771450698],[129.30270219827983,49.403463739502165],[129.13653398538918,49.45004336246294],[129.07885576273293,49.43123771452054],[128.95113969827986,49.514464815707065],[128.7918379404673,49.556471735090405],[128.28372026468608,49.618075698235714],[127.90194536234235,49.66088449568119],[127.65019698641953,49.84627771213078],[127.55132003329449,50.00231795163807],[127.49089522860699,50.1684365655762],[127.40849776766957,50.31991058982176],[127.38103194735706,50.51470265379987],[127.36455245516949,50.73658572585636],[126.99123575687112,51.29096657585079],[126.60693273044775,51.85230896242745],[126.32532063727527,52.51680912677169],[126.04169232506395,52.82536476316734],[125.51636479410278,53.15155208886835],[125.13458989175899,53.20765326078356],[124.82971928629028,53.20435523259054],[124.30786870035277,53.40835104538942],[123.66516850504024,53.572151143882465],[122.95380375894649,53.5410780277979],[122.24243901285278,53.46411440363443],[121.53021800725092,53.413078468561274],[121.11917586382503,53.35468493470847],[120.74109270477413,53.250111254933465],[120.3263588180554,53.013894023407026],[119.96655657196163,52.70969581335938],[120.0489540328991,52.59611381701005],[120.4224891891491,52.53586207872698],[120.60376360321156,52.48223512782041],[120.52960588836783,52.41342946339785],[120.53235247039912,52.29739058964206],[120.51069911679839,52.193722458914166],[120.59890904444768,52.089810774392305],[120.31532444972105,51.91817890386268],[120.1635757924945,51.73224341552],[119.77218785304136,51.27543874727738],[119.08828892726011,50.40418223705275],[119.1597000600726,50.328640637732285],[119.29702916163517,50.29522327001967],[119.2805496694476,50.21774499564672],[119.0663162710101,50.05533538018152],[118.74221959132261,49.99517410092203],[118.50601353663508,49.91365879868672],[118.11050572413502,49.71816798594867],[117.78091588038505,49.50042144816885],[117.27554478663511,49.64331646178582],[116.69876256007264,49.949117283997275],[115.36675212776642,49.9517764637067],[114.36699626839143,50.262663458330785],[113.10906169807889,49.8062379846223],[113.03215740120392,49.60674055763749],[111.71988877879768,49.18749184549273],[108.45949173435672,49.28436634135957],[107.6245307968567,50.15688182422446],[108.83302689060672,50.420830966601386],[108.41554642185669,50.58199195444097],[108.31666946873165,50.91654866480454],[108.81654739841913,51.45851763443038],[110.64769503481604,51.5756337132875],[111.87816378481601,52.238160128346316],[113.67992159731598,52.57076787864966],[114.53777711468447,53.13390640586554],[114.20269410687197,53.31521866656546],[114.32354371624697,53.72442855416014],[119.75037973674947,55.51666706602384],[121.61805551799942,55.873458367185286],[123.86475961956192,55.27594050312591],[123.26600473674942,55.00533353431411],[123.30995004924941,54.75512594558004],[123.05726450237441,54.55447335182877],[123.02979868206191,54.166295865382374],[123.68348520549941,54.06948278880339],[124.71620004924941,55.17546479415472],[126.53993051799942,55.01480435220578],[129.1327039554994,53.62774204487023],[130.71545186735534,51.42314372853406],[131.8635231564178,51.10262954801038],[131.80859151579284,50.570434312797445],[131.07250753141776,50.12050315984625],[131.00109639860528,49.63061195412158],[130.58910909391778,49.783795333631424],[130.28149190641778,49.837117147097],[129.90246358610528,49.783795333631424],[129.58248677946463,49.64131493160647],[129.4161720504767,49.439529597340965],[129.41393877054549,49.43123771450698]]]}},{"type":"Feature","properties":{"road":"В-СИБ","fill":"#E06060","fill-opacity":0.3,"stroke":"#E06060","stroke-width":0.5,"stroke-opacity":0.9},"geometry":{"type":"Polygon","coordinates":[[[104.42027957060411,50.38597449155122],[105.38220598602341,50.596844998860206],[107.71680071258591,50.026999994733416],[107.5739784469609,50.16834112750099],[108.77698137664841,50.43573506351758],[108.39795305633592,50.56886558934989],[108.2825966110234,50.91740789780825],[108.8154335250859,51.4833814604999],[110.6611366500859,51.596422481873866],[111.86413957977335,52.25864289901065],[113.6823768844609,52.5910960156884],[114.50085832977332,53.13629521831542],[114.17676165008585,53.31101804360295],[114.29211809539831,53.72678425182159],[119.77429582977328,55.54273733124459],[119.59832158663723,57.05341287113918],[102.13421941124345,57.93327725478077],[97.28924870811842,55.952259111836916],[97.86053777061841,55.90908655062246],[98.54615796508494,52.20602751216655],[102.51222241820999,51.395495702008915],[102.69542605497912,50.77769175693744],[103.22276980497912,50.33677935802],[104.39830691435414,50.37192397041421],[104.42027957060411,50.38597449155122]]]}},{"type":"Feature","properties":{"road":"КРАСН","fill":"#888888","fill-opacity":0.3,"stroke":"#888888","stroke-width":0.5,"stroke-opacity":0.9},"geometry":{"type":"Polygon","coordinates":[[[98.53999342547357,52.21376213733774],[97.80477579363561,55.90372966549073],[97.26644571551063,55.934576417372455],[102.11141641863561,57.95741554059928],[92.41048868426056,58.369644487823855],[88.45088461038979,58.1624711568977],[87.67085531351479,56.20627932549057],[88.96207948337589,49.809925112651136],[92.54362245212589,50.79500773409272],[93.25773378025089,50.69044353050411],[94.52116151462587,50.599631258731925],[94.5651068271259,50.26983639052643],[94.90568299900085,50.07933420156785],[96.35162757790658,49.987115273183804],[97.52167152321911,49.78836734769527],[98.0929605857191,49.88074551232069],[98.41705726540658,50.269614561689906],[98.39508460915661,50.55393844140735],[98.02154945290661,50.913011355009786],[98.31818031228158,51.68096317866447],[98.61896056813453,51.98553482283355],[98.547549435322,52.208823160574504],[98.53999342547357,52.21376213733774]]]}},{"type":"Feature","properties":{"road":"З-СИБ","fill":"#C47A3A","fill-opacity":0.3,"stroke":"#C47A3A","stroke-width":0.5,"stroke-opacity":0.9},"geometry":{"type":"Polygon","coordinates":[[[88.9400054900094,49.80797470946119],[87.6271392790719,49.26098765195418],[87.0943023650094,49.50485309637027],[86.5999175993844,49.889669618533475],[85.79791564625938,49.676261007363436],[83.40838927907186,51.2814292035181],[82.51300353688434,51.04656764776363],[81.48466026953412,50.991276777259195],[80.78153526953415,51.333219516067366],[79.91910851172163,51.24021506104729],[76.76772820274492,54.612069687645565],[74.5131052860781,53.738230842590966],[73.55306799726597,54.198605468741704],[71.3847986142547,54.23587157547284],[71.23099002050469,54.906081488556296],[71.30178033031588,55.575669824634616],[85.42418194950432,59.08401101544624],[88.45924212240784,58.16585133463386],[87.65724016928277,56.2251480731641],[88.94264055990756,49.800093728217554],[88.9400054900094,49.80797470946119]]]}}]}